{
  "type": "FeatureCollection",
  "features": [
    {
      "type": "Feature",
      "properties": {
        "norad_id": 31429,
        "name": "FENGYUN 1C DEB",
        "group": "fengyun-1c-debris",
        "lat": -37.77365479646221,
        "lon": 53.0008800938403,
        "alt_km": 819.6870381199469,
        "timestamp": "2025-12-23T09:49:07.365754+00:00",
        "meta_object_name": "FENGYUN 1C DEB",
        "meta_object_id": "1999-025BTR",
        "meta_epoch": "2025-12-22T08:57:48.155328",
        "meta_mean_motion": 14.22606835,
        "meta_eccentricity": 0.00141385,
        "meta_inclination": 98.6877,
        "meta_ra_of_asc_node": 45.1751,
        "meta_arg_of_pericenter": 36.5213,
        "meta_mean_anomaly": 24.5234,
        "meta_ephemeris_type": 0,
        "meta_classification_type": "U",
        "meta_norad_cat_id": 31429,
        "meta_element_set_no": 999,
        "meta_rev_at_epoch": 96090,
        "meta_bstar": 0.00093709947,
        "meta_mean_motion_dot": 2.053e-05,
        "meta_mean_motion_ddot": 0,
        "tle_line1": "1 31429U 99025BTR 25356.37347402  .00002053  00000+0  93710-3 0  9997",
        "tle_line2": "2 31429  98.6877  45.1751 0014138  36.5213  24.5234 14.22606835960907"
      },
      "geometry": {
        "type": "Point",
        "coordinates": [
          53.0008800938403,
          -37.77365479646221
        ]
      }
    },
    {
      "type": "Feature",
      "properties": {
        "norad_id": 31430,
        "name": "FENGYUN 1C DEB",
        "group": "fengyun-1c-debris",
        "lat": -19.211468883487576,
        "lon": 63.477473406422476,
        "alt_km": 794.995061892274,
        "timestamp": "2025-12-23T09:49:07.365764+00:00",
        "meta_object_name": "FENGYUN 1C DEB",
        "meta_object_id": "1999-025BTS",
        "meta_epoch": "2025-12-22T03:43:10.270272",
        "meta_mean_motion": 14.25641119,
        "meta_eccentricity": 0.00263572,
        "meta_inclination": 98.7427,
        "meta_ra_of_asc_node": 59.1534,
        "meta_arg_of_pericenter": 14.5324,
        "meta_mean_anomaly": 13.3218,
        "meta_ephemeris_type": 0,
        "meta_classification_type": "U",
        "meta_norad_cat_id": 31430,
        "meta_element_set_no": 999,
        "meta_rev_at_epoch": 96252,
        "meta_bstar": 0.00085378441,
        "meta_mean_motion_dot": 1.986e-05,
        "meta_mean_motion_ddot": 0,
        "tle_line1": "1 31430U 99025BTS 25356.15497998  .00001986  00000+0  85378-3 0  9996",
        "tle_line2": "2 31430  98.7427  59.1534 0026357  14.5324  13.3218 14.25641119962525"
      },
      "geometry": {
        "type": "Point",
        "coordinates": [
          63.477473406422476,
          -19.211468883487576
        ]
      }
    },
    {
      "type": "Feature",
      "properties": {
        "norad_id": 31431,
        "name": "FENGYUN 1C DEB",
        "group": "fengyun-1c-debris",
        "lat": 81.38294032255209,
        "lon": 162.21537297095384,
        "alt_km": 786.291565741576,
        "timestamp": "2025-12-23T09:49:07.365774+00:00",
        "meta_object_name": "FENGYUN 1C DEB",
        "meta_object_id": "1999-025BTT",
        "meta_epoch": "2025-12-17T02:48:02.899008",
        "meta_mean_motion": 14.0310372,
        "meta_eccentricity": 0.01337574,
        "meta_inclination": 98.5434,
        "meta_ra_of_asc_node": 239.0286,
        "meta_arg_of_pericenter": 83.045,
        "meta_mean_anomaly": 278.5911,
        "meta_ephemeris_type": 0,
        "meta_classification_type": "U",
        "meta_norad_cat_id": 31431,
        "meta_element_set_no": 999,
        "meta_rev_at_epoch": 94593,
        "meta_bstar": 0.001336432,
        "meta_mean_motion_dot": 2.211e-05,
        "meta_mean_motion_ddot": 0,
        "tle_line1": "1 31431U 99025BTT 25351.11670022  .00002211  00000+0  13364-2 0  9996",
        "tle_line2": "2 31431  98.5434 239.0286 0133757  83.0450 278.5911 14.03103720945937"
      },
      "geometry": {
        "type": "Point",
        "coordinates": [
          162.21537297095384,
          81.38294032255209
        ]
      }
    },
    {
      "type": "Feature",
      "properties": {
        "norad_id": 31433,
        "name": "FENGYUN 1C DEB",
        "group": "fengyun-1c-debris",
        "lat": 25.333050514821593,
        "lon": 84.46268631339994,
        "alt_km": 871.3331233065837,
        "timestamp": "2025-12-23T09:49:07.365785+00:00",
        "meta_object_name": "FENGYUN 1C DEB",
        "meta_object_id": "1999-025BTV",
        "meta_epoch": "2025-12-21T10:13:00.561216",
        "meta_mean_motion": 14.25519142,
        "meta_eccentricity": 0.01002046,
        "meta_inclination": 98.4108,
        "meta_ra_of_asc_node": 258.5435,
        "meta_arg_of_pericenter": 4.4201,
        "meta_mean_anomaly": 56.5126,
        "meta_ephemeris_type": 0,
        "meta_classification_type": "U",
        "meta_norad_cat_id": 31433,
        "meta_element_set_no": 999,
        "meta_rev_at_epoch": 95676,
        "meta_bstar": 0.0018800586,
        "meta_mean_motion_dot": 4.645e-05,
        "meta_mean_motion_ddot": 0,
        "tle_line1": "1 31433U 99025BTV 25355.42570094  .00004645  00000+0  18801-2 0  9998",
        "tle_line2": "2 31433  98.4108 258.5435 0100204   4.4201  56.5126 14.25519142956768"
      },
      "geometry": {
        "type": "Point",
        "coordinates": [
          84.46268631339994,
          25.333050514821593
        ]
      }
    },
    {
      "type": "Feature",
      "properties": {
        "norad_id": 31435,
        "name": "FENGYUN 1C DEB",
        "group": "fengyun-1c-debris",
        "lat": -44.817188104893894,
        "lon": -19.02561674058686,
        "alt_km": 696.7627052241642,
        "timestamp": "2025-12-23T09:49:07.365795+00:00",
        "meta_object_name": "FENGYUN 1C DEB",
        "meta_object_id": "1999-025BTX",
        "meta_epoch": "2025-12-17T22:16:16.879296",
        "meta_mean_motion": 14.5344893,
        "meta_eccentricity": 0.01492409,
        "meta_inclination": 99.0367,
        "meta_ra_of_asc_node": 164.1637,
        "meta_arg_of_pericenter": 164.3853,
        "meta_mean_anomaly": 196.2019,
        "meta_ephemeris_type": 0,
        "meta_classification_type": "U",
        "meta_norad_cat_id": 31435,
        "meta_element_set_no": 999,
        "meta_rev_at_epoch": 98448,
        "meta_bstar": 0.00019866345,
        "meta_mean_motion_dot": 8.98e-06,
        "meta_mean_motion_ddot": 0,
        "tle_line1": "1 31435U 99025BTX 25351.92797314  .00000898  00000+0  19866-3 0  9996",
        "tle_line2": "2 31435  99.0367 164.1637 0149240 164.3853 196.2019 14.53448930984482"
      },
      "geometry": {
        "type": "Point",
        "coordinates": [
          -19.02561674058686,
          -44.817188104893894
        ]
      }
    },
    {
      "type": "Feature",
      "properties": {
        "norad_id": 31436,
        "name": "FENGYUN 1C DEB",
        "group": "fengyun-1c-debris",
        "lat": -58.37264787014012,
        "lon": -133.54671273141025,
        "alt_km": 592.29433764235,
        "timestamp": "2025-12-23T09:49:07.365805+00:00",
        "meta_object_name": "FENGYUN 1C DEB",
        "meta_object_id": "1999-025BTY",
        "meta_epoch": "2025-12-21T13:13:53.272128",
        "meta_mean_motion": 14.94459125,
        "meta_eccentricity": 0.0041664,
        "meta_inclination": 98.8821,
        "meta_ra_of_asc_node": 209.6432,
        "meta_arg_of_pericenter": 213.0311,
        "meta_mean_anomaly": 177.4351,
        "meta_ephemeris_type": 0,
        "meta_classification_type": "U",
        "meta_norad_cat_id": 31436,
        "meta_element_set_no": 999,
        "meta_rev_at_epoch": 97008,
        "meta_bstar": 0.0038727,
        "meta_mean_motion_dot": 0.00042653,
        "meta_mean_motion_ddot": 0,
        "tle_line1": "1 31436U 99025BTY 25355.55131102  .00042653  00000+0  38727-2 0  9998",
        "tle_line2": "2 31436  98.8821 209.6432 0041664 213.0311 177.4351 14.94459125970089"
      },
      "geometry": {
        "type": "Point",
        "coordinates": [
          -133.54671273141025,
          -58.37264787014012
        ]
      }
    },
    {
      "type": "Feature",
      "properties": {
        "norad_id": 31437,
        "name": "FENGYUN 1C DEB",
        "group": "fengyun-1c-debris",
        "lat": -2.3498210142520364,
        "lon": 79.25882373070367,
        "alt_km": 761.9081885221558,
        "timestamp": "2025-12-23T09:49:07.365816+00:00",
        "meta_object_name": "FENGYUN 1C DEB",
        "meta_object_id": "1999-025BTZ",
        "meta_epoch": "2025-12-20T05:15:31.495392",
        "meta_mean_motion": 14.42611415,
        "meta_eccentricity": 0.0016152,
        "meta_inclination": 98.8631,
        "meta_ra_of_asc_node": 75.5781,
        "meta_arg_of_pericenter": 226.616,
        "meta_mean_anomaly": 133.3684,
        "meta_ephemeris_type": 0,
        "meta_classification_type": "U",
        "meta_norad_cat_id": 31437,
        "meta_element_set_no": 999,
        "meta_rev_at_epoch": 96618,
        "meta_bstar": 0.0015388,
        "meta_mean_motion_dot": 5.075e-05,
        "meta_mean_motion_ddot": 0,
        "tle_line1": "1 31437U 99025BTZ 25354.21911453  .00005075  00000+0  15388-2 0  9991",
        "tle_line2": "2 31437  98.8631  75.5781 0016152 226.6160 133.3684 14.42611415966183"
      },
      "geometry": {
        "type": "Point",
        "coordinates": [
          79.25882373070367,
          -2.3498210142520364
        ]
      }
    }
  ]
}